OBJECT_NAME,OBJECT_ID,EPOCH,MEAN_MOTION,ECCENTRICITY,INCLINATION,RA_OF_ASC_NODE,ARG_OF_PERICENTER,MEAN_ANOMALY,EPHEMERIS_TYPE,CLASSIFICATION_TYPE,NORAD_CAT_ID,ELEMENT_SET_NO,REV_AT_EPOCH,BSTAR,MEAN_MOTION_DOT,MEAN_MOTION_DDOT
DMSP 5D-3 F16 (USA 172),2003-048A,2026-06-09T12:51:30.884832,14.14482537,.000738,98.9892,184.3134,160.2006,315.4643,0,U,28054,999,16840,.24226295E-4,.1E-7,0
METEOSAT-9 (MSG-2),2005-049B,2026-06-08T20:26:34.465920,1.00268877,.00017025,9.3416,54.2478,351.0293,204.2846,0,U,28912,999,691,0,.137E-5,0
DMSP 5D-3 F17 (USA 191),2006-050A,2026-06-09T12:47:20.114880,14.14992095,.00113128,98.7377,167.2596,79.0418,281.2028,0,U,29522,999,1134,.40267366E-4,.35E-6,0
FENGYUN 3A,2008-026A,2026-06-09T10:26:32.534592,14.19569565,.00092682,98.6882,101.4134,144.1259,216.0541,0,U,32958,999,93430,.52090639E-4,.67E-6,0
GOES 14,2009-033A,2026-06-09T12:08:50.863200,1.00113602,.00018977,1.6692,83.1363,5.5083,137.6835,0,U,35491,999,651,0,-.243E-5,0
DMSP 5D-3 F18 (USA 210),2009-057A,2026-06-09T12:05:23.040096,14.14892454,.00098623,98.9034,141.2897,274.0704,85.9341,0,U,35951,999,85850,.15148656E-3,.248E-5,0
EWS-G2 (GOES 15),2010-008A,2026-06-09T11:55:41.867040,1.00275761,.00054517,1.2555,82.9872,39.0550,18.3710,0,U,36411,999,5956,0,.35E-6,0
COMS 1,2010-032A,2026-06-03T23:47:39.107040,1.00270643,.0001016,4.7750,75.5286,4.5847,297.3769,0,U,36744,999,5095,0,-.334E-5,0
FENGYUN 3B,2010-059A,2026-06-09T16:13:02.171712,14.14840492,.00214531,98.9624,206.6583,205.6541,264.1421,0,U,37214,999,80636,.80494969E-4,.11E-5,0
SUOMI NPP,2011-061A,2026-06-09T14:05:23.074368,14.19515805,.00019528,98.7953,101.5151,24.0339,336.0928,0,U,37849,999,75736,.50307332E-4,.62E-6,0
METEOSAT-10 (MSG-3),2012-035B,2026-06-09T08:12:23.679936,1.00275834,.00015594,4.6521,61.0520,334.1792,345.8157,0,U,38552,999,5077,0,.11E-6,0
METOP-B,2012-049A,2026-06-09T12:24:25.832160,14.21430608,.00026809,98.6507,212.1690,37.6263,322.5102,0,U,38771,999,71217,.58235303E-4,.84E-6,0
INSAT-3D,2013-038B,2026-06-09T12:14:30.439392,1.00273263,.00007482,1.9052,82.6392,316.2948,172.0932,0,U,39216,999,4700,0,-.322E-5,0
FENGYUN 3C,2013-052A,2026-06-09T14:57:15.251616,14.15753308,.00156041,98.4975,134.8454,48.2961,311.9546,0,U,39260,999,65749,.6316245E-4,.83E-6,0
METEOR-M 2,2014-037A,2026-06-09T14:43:57.880704,14.21459847,.00069925,98.5112,136.6206,62.4899,297.6989,0,U,40069,999,61824,.12457683E-3,.23E-5,0
HIMAWARI-8,2014-060A,2026-06-08T20:10:00.000192,1.00270961,.00008182,0.0136,319.3355,138.5674,242.4936,0,U,40267,999,4267,0,-.259E-5,0
FENGYUN 2G,2014-090A,2026-06-09T14:51:02.941056,1.00276363,.00035021,5.6188,72.9065,153.0660,354.4052,0,U,40367,999,4192,0,-.287E-5,0
METEOSAT-11 (MSG-4),2015-034A,2026-06-09T06:32:15.023904,1.00277861,.00017073,3.1824,71.1549,6.4566,287.5516,0,U,40732,999,713,0,.8E-6,0
ELEKTRO-L 2,2015-074A,2026-06-09T06:22:25.775904,1.00271831,.0001007,6.6730,70.6207,284.5070,343.6389,0,U,41105,999,3842,0,-.102E-5,0
SENTINEL-3A,2016-011A,2026-06-09T12:03:16.903008,14.26737872,.00013527,98.6249,227.9960,104.3212,255.8119,0,U,41335,999,53696,.53071753E-4,.85E-6,0
INSAT-3DR,2016-054A,2026-06-09T11:58:41.579040,1.00270493,.0010466,0.0853,87.4648,186.8080,237.2620,0,U,41752,999,3574,0,-.6E-6,0
HIMAWARI-9,2016-064A,2026-06-09T12:17:45.127968,1.00272148,.00008356,0.0262,154.6085,329.8224,98.6724,0,U,41836,999,3513,0,-.257E-5,0
GOES 16,2016-071A,2026-06-09T11:07:39.752256,1.00270525,.00003902,0.3199,85.6009,312.7885,281.6941,0,U,41866,999,3502,0,-.74E-6,0
FENGYUN 4A,2016-077A,2026-06-09T07:04:55.629120,1.00273462,.0008327,2.3018,80.3704,151.5209,255.7921,0,U,41882,999,3485,0,-.34E-5,0
CYGFM05,2016-078A,2026-06-08T20:11:45.684672,15.56298876,.00069022,34.9576,315.8393,64.4552,295.6886,0,U,41884,999,52745,.33038109E-3,.24058E-3,0
CYGFM04,2016-078B,2026-06-09T09:55:15.134304,15.61077077,.00059744,34.9326,280.1323,118.4059,241.7269,0,U,41885,999,52778,.31488039E-3,.27502E-3,0
CYGFM02,2016-078C,2026-06-09T11:49:21.276768,15.64000113,.00069353,34.9407,274.3619,120.5348,239.6063,0,U,41886,999,52796,.33695949E-3,.33042E-3,0
CYGFM01,2016-078D,2026-06-08T20:00:42.431616,15.56961058,.00067782,34.9406,317.0150,57.2874,302.8504,0,U,41887,999,52740,.32211491E-3,.24044E-3,0
CYGFM08,2016-078E,2026-06-09T10:44:32.849952,15.59609643,.00078122,34.9433,292.7285,99.3578,260.8031,0,U,41888,999,52776,.31887187E-3,.26331E-3,0
CYGFM07,2016-078G,2026-06-09T12:50:45.136032,15.59717961,.00063832,34.9448,280.4948,118.7296,241.4071,0,U,41890,999,52780,.31433112E-3,.2605E-3,0
CYGFM03,2016-078H,2026-06-09T10:36:46.436832,15.59706930,.00058929,34.9402,283.0525,104.2001,255.9379,0,U,41891,999,52776,.32245952E-3,.26712E-3,0
